ORBCOMM FM115           
1 41186U 15081H   25297.63600381  .00001090  00000+0  24575-3 0  9992
2 41186  46.9970 143.7885 0001250 284.9647  75.1102 14.62771894526728
ORBCOMM FM108           
1 41187U 15081J   25297.80065363  .00001641  00000+0  38671-3 0  9991
2 41187  47.0043 214.7599 0002231 204.7628 155.3151 14.58431520525719
ORBCOMM FM117           
1 41188U 15081K   25297.76694330  .00001591  00000+0  37613-3 0  9998
2 41188  47.0008 213.6390 0002892 213.3933 146.6770 14.58432851525758
ORBCOMM FM116           
1 41189U 15081L   25297.74947475  .00001312  00000+0  31598-3 0  9995
2 41189  47.0025 303.5134 0001594   0.3800 359.7087 14.58506384524567
